[{"OBJECT_NAME":"STARLINK-11623 [DTC]","OBJECT_ID":"2025-053M","EPOCH":"2026-01-12T21:56:19.018464","MEAN_MOTION":15.70928229,"ECCENTRICITY":0.00012172,"INCLINATION":42.9995,"RA_OF_ASC_NODE":88.7686,"ARG_OF_PERICENTER":220.4215,"MEAN_ANOMALY":139.6562,"EPHEMERIS_TYPE":0,"CLASSIFICATION_TYPE":"U","NORAD_CAT_ID":63276,"ELEMENT_SET_NO":999,"REV_AT_EPOCH":4888,"BSTAR":0.0015152371,"MEAN_MOTION_DOT":0.00199451,"MEAN_MOTION_DDOT":0},{"OBJECT_NAME":"STARLINK-33660","OBJECT_ID":"2025-053P","EPOCH":"2026-01-12T13:02:26.585664","MEAN_MOTION":15.27587423,"ECCENTRICITY":0.0002272,"INCLINATION":43.0016,"RA_OF_ASC_NODE":199.1179,"ARG_OF_PERICENTER":284.2739,"MEAN_ANOMALY":75.786,"EPHEMERIS_TYPE":0,"CLASSIFICATION_TYPE":"U","NORAD_CAT_ID":63278,"ELEMENT_SET_NO":999,"REV_AT_EPOCH":4760,"BSTAR":0.0012468134,"MEAN_MOTION_DOT":0.00034216,"MEAN_MOTION_DDOT":0},{"OBJECT_NAME":"STARLINK-33611","OBJECT_ID":"2025-053Q","EPOCH":"2026-01-12T18:31:39.205056","MEAN_MOTION":15.27601487,"ECCENTRICITY":0.00019113,"INCLINATION":42.9995,"RA_OF_ASC_NODE":193.9234,"ARG_OF_PERICENTER":115.7738,"MEAN_ANOMALY":244.3311,"EPHEMERIS_TYPE":0,"CLASSIFICATION_TYPE":"U","NORAD_CAT_ID":63279,"ELEMENT_SET_NO":999,"REV_AT_EPOCH":4779,"BSTAR":0.0011235565,"MEAN_MOTION_DOT":0.00030806,"MEAN_MOTION_DDOT":0},{"OBJECT_NAME":"STARLINK-33646","OBJECT_ID":"2025-053R","EPOCH":"2026-01-12T21:35:34.272672","MEAN_MOTION":15.27587879,"ECCENTRICITY":4.426e-5,"INCLINATION":43.0011,"RA_OF_ASC_NODE":196.6338,"ARG_OF_PERICENTER":251.8537,"MEAN_ANOMALY":108.2267,"EPHEMERIS_TYPE":0,"CLASSIFICATION_TYPE":"U","NORAD_CAT_ID":63280,"ELEMENT_SET_NO":999,"REV_AT_EPOCH":4766,"BSTAR":0.00051557105,"MEAN_MOTION_DOT":0.00013956,"MEAN_MOTION_DDOT":0},{"OBJECT_NAME":"STARLINK-33665","OBJECT_ID":"2025-053S","EPOCH":"2026-01-12T21:04:06.925152","MEAN_MOTION":15.27570343,"ECCENTRICITY":0.00013829,"INCLINATION":43.0004,"RA_OF_ASC_NODE":196.4564,"ARG_OF_PERICENTER":271.4376,"MEAN_ANOMALY":88.6317,"EPHEMERIS_TYPE":0,"CLASSIFICATION_TYPE":"U","NORAD_CAT_ID":63281,"ELEMENT_SET_NO":999,"REV_AT_EPOCH":4766,"BSTAR":0.00058151511,"MEAN_MOTION_DOT":0.00015769,"MEAN_MOTION_DDOT":0},{"OBJECT_NAME":"STARLINK-33603","OBJECT_ID":"2025-053T","EPOCH":"2026-01-12T19:24:36.764640","MEAN_MOTION":15.27572968,"ECCENTRICITY":0.00016606,"INCLINATION":42.9989,"RA_OF_ASC_NODE":197.6483,"ARG_OF_PERICENTER":272.3103,"MEAN_ANOMALY":87.7558,"EPHEMERIS_TYPE":0,"CLASSIFICATION_TYPE":"U","NORAD_CAT_ID":63282,"ELEMENT_SET_NO":999,"REV_AT_EPOCH":4764,"BSTAR":0.00077311409,"MEAN_MOTION_DOT":0.00021069,"MEAN_MOTION_DDOT":0},{"OBJECT_NAME":"STARLINK-33669","OBJECT_ID":"2025-053U","EPOCH":"2026-01-12T21:15:12.906720","MEAN_MOTION":15.27581388,"ECCENTRICITY":0.00016842,"INCLINATION":43.0014,"RA_OF_ASC_NODE":196.5157,"ARG_OF_PERICENTER":259.2736,"MEAN_ANOMALY":100.7926,"EPHEMERIS_TYPE":0,"CLASSIFICATION_TYPE":"U","NORAD_CAT_ID":63283,"ELEMENT_SET_NO":999,"REV_AT_EPOCH":4766,"BSTAR":0.00076052148,"MEAN_MOTION_DOT":0.00020726,"MEAN_MOTION_DDOT":0},{"OBJECT_NAME":"STARLINK-33673","OBJECT_ID":"2025-053V","EPOCH":"2026-01-12T20:26:39.121152","MEAN_MOTION":15.27564846,"ECCENTRICITY":0.0002028,"INCLINATION":42.9995,"RA_OF_ASC_NODE":189.3242,"ARG_OF_PERICENTER":280.1106,"MEAN_ANOMALY":79.9517,"EPHEMERIS_TYPE":0,"CLASSIFICATION_TYPE":"U","NORAD_CAT_ID":63284,"ELEMENT_SET_NO":999,"REV_AT_EPOCH":4785,"BSTAR":0.0011105894,"MEAN_MOTION_DOT":0.00030412,"MEAN_MOTION_DDOT":0},{"OBJECT_NAME":"STARLINK-33662","OBJECT_ID":"2025-053W","EPOCH":"2026-01-12T20:12:31.197600","MEAN_MOTION":15.27556117,"ECCENTRICITY":0.0001789,"INCLINATION":42.9982,"RA_OF_ASC_NODE":197.0508,"ARG_OF_PERICENTER":282.8977,"MEAN_ANOMALY":77.1674,"EPHEMERIS_TYPE":0,"CLASSIFICATION_TYPE":"U","NORAD_CAT_ID":63285,"ELEMENT_SET_NO":999,"REV_AT_EPOCH":4765,"BSTAR":0.00080609281,"MEAN_MOTION_DOT":0.0002197,"MEAN_MOTION_DDOT":0},{"OBJECT_NAME":"STARLINK-33613","OBJECT_ID":"2025-053X","EPOCH":"2026-01-12T22:18:08.168544","MEAN_MOTION":15.27566289,"ECCENTRICITY":0.00013518,"INCLINATION":42.9991,"RA_OF_ASC_NODE":196.8547,"ARG_OF_PERICENTER":273.3928,"MEAN_ANOMALY":86.6769,"EPHEMERIS_TYPE":0,"CLASSIFICATION_TYPE":"U","NORAD_CAT_ID":63286,"ELEMENT_SET_NO":999,"REV_AT_EPOCH":4766,"BSTAR":0.0005206022,"MEAN_MOTION_DOT":0.00014085,"MEAN_MOTION_DDOT":0},{"OBJECT_NAME":"STARLINK-33680","OBJECT_ID":"2025-053Y","EPOCH":"2026-01-12T21:24:28.419840","MEAN_MOTION":15.27568184,"ECCENTRICITY":0.00020763,"INCLINATION":43.0023,"RA_OF_ASC_NODE":196.5733,"ARG_OF_PERICENTER":272.7368,"MEAN_ANOMALY":87.3246,"EPHEMERIS_TYPE":0,"CLASSIFICATION_TYPE":"U","NORAD_CAT_ID":63287,"ELEMENT_SET_NO":999,"REV_AT_EPOCH":4771,"BSTAR":0.00070577041,"MEAN_MOTION_DOT":0.00019203,"MEAN_MOTION_DDOT":0},{"OBJECT_NAME":"STARLINK-11568 [DTC]","OBJECT_ID":"2025-057A","EPOCH":"2026-01-12T01:15:05.664096","MEAN_MOTION":15.70806297,"ECCENTRICITY":0.00034324,"INCLINATION":42.9994,"RA_OF_ASC_NODE":245.5992,"ARG_OF_PERICENTER":239.5496,"MEAN_ANOMALY":120.5033,"EPHEMERIS_TYPE":0,"CLASSIFICATION_TYPE":"U","NORAD_CAT_ID":63307,"ELEMENT_SET_NO":999,"REV_AT_EPOCH":4827,"BSTAR":0.00034851845,"MEAN_MOTION_DOT":0.00044457,"MEAN_MOTION_DDOT":0},{"OBJECT_NAME":"STARLINK-11575 [DTC]","OBJECT_ID":"2025-057B","EPOCH":"2026-01-12T21:43:37.267680","MEAN_MOTION":15.70914609,"ECCENTRICITY":0.00019431,"INCLINATION":43.0031,"RA_OF_ASC_NODE":240.8281,"ARG_OF_PERICENTER":263.6539,"MEAN_ANOMALY":96.4107,"EPHEMERIS_TYPE":0,"CLASSIFICATION_TYPE":"U","NORAD_CAT_ID":63308,"ELEMENT_SET_NO":999,"REV_AT_EPOCH":4840,"BSTAR":0.001092568,"MEAN_MOTION_DOT":0.00142622,"MEAN_MOTION_DDOT":0},{"OBJECT_NAME":"STARLINK-11585 [DTC]","OBJECT_ID":"2025-057C","EPOCH":"2026-01-12T15:14:26.936736","MEAN_MOTION":15.70936429,"ECCENTRICITY":0.00015256,"INCLINATION":42.9978,"RA_OF_ASC_NODE":242.234,"ARG_OF_PERICENTER":275.4603,"MEAN_ANOMALY":84.6091,"EPHEMERIS_TYPE":0,"CLASSIFICATION_TYPE":"U","NORAD_CAT_ID":63309,"ELEMENT_SET_NO":999,"REV_AT_EPOCH":4839,"BSTAR":0.0016147584,"MEAN_MOTION_DOT":0.00213005,"MEAN_MOTION_DDOT":0},{"OBJECT_NAME":"STARLINK-11587 [DTC]","OBJECT_ID":"2025-057D","EPOCH":"2026-01-12T22:14:11.909472","MEAN_MOTION":15.70933071,"ECCENTRICITY":0.00019243,"INCLINATION":42.9989,"RA_OF_ASC_NODE":240.9993,"ARG_OF_PERICENTER":242.7749,"MEAN_ANOMALY":117.2922,"EPHEMERIS_TYPE":0,"CLASSIFICATION_TYPE":"U","NORAD_CAT_ID":63310,"ELEMENT_SET_NO":999,"REV_AT_EPOCH":4840,"BSTAR":0.0012291797,"MEAN_MOTION_DOT":0.00160995,"MEAN_MOTION_DDOT":0},{"OBJECT_NAME":"STARLINK-11589 [DTC]","OBJECT_ID":"2025-057E","EPOCH":"2026-01-12T22:21:51.007968","MEAN_MOTION":15.70906703,"ECCENTRICITY":0.00017056,"INCLINATION":43.0005,"RA_OF_ASC_NODE":241.0425,"ARG_OF_PERICENTER":284.1616,"MEAN_ANOMALY":75.9062,"EPHEMERIS_TYPE":0,"CLASSIFICATION_TYPE":"U","NORAD_CAT_ID":63311,"ELEMENT_SET_NO":999,"REV_AT_EPOCH":4840,"BSTAR":0.00097456751,"MEAN_MOTION_DOT":0.00126884,"MEAN_MOTION_DDOT":0}]
