STARLINK-11623 [DTC]    
1 63276U 25053M   26012.91410901  .00199451  00000+0  15152-2 0  9999
2 63276  42.9995  88.7686 0001217 220.4215 139.6562 15.70928229 48889
STARLINK-33660          
1 63278U 25053P   26012.54336326  .00034216  00000+0  12468-2 0  9992
2 63278  43.0016 199.1179 0002272 284.2739  75.7860 15.27587423 47601
STARLINK-33611          
1 63279U 25053Q   26012.77198154  .00030806  00000+0  11236-2 0  9996
2 63279  42.9995 193.9234 0001911 115.7738 244.3311 15.27601487 47798
STARLINK-33646          
1 63280U 25053R   26012.89970223  .00013956  00000+0  51557-3 0  9994
2 63280  43.0011 196.6338 0000442 251.8537 108.2267 15.27587879 47665
STARLINK-33665          
1 63281U 25053S   26012.87785793  .00015769  00000+0  58152-3 0  9991
2 63281  43.0004 196.4564 0001382 271.4376  88.6317 15.27570343 47665
STARLINK-33603          
1 63282U 25053T   26012.80875885  .00021069  00000+0  77311-3 0  9995
2 63282  42.9989 197.6483 0001660 272.3103  87.7558 15.27572968 47646
STARLINK-33669          
1 63283U 25053U   26012.88556605  .00020726  00000+0  76052-3 0  9990
2 63283  43.0014 196.5157 0001684 259.2736 100.7926 15.27581388 47669
STARLINK-33673          
1 63284U 25053V   26012.85184168  .00030412  00000+0  11106-2 0  9990
2 63284  42.9995 189.3242 0002028 280.1106  79.9517 15.27564846 47852
STARLINK-33662          
1 63285U 25053W   26012.84202775  .00021970  00000+0  80609-3 0  9999
2 63285  42.9982 197.0508 0001789 282.8977  77.1674 15.27556117 47652
STARLINK-33613          
1 63286U 25053X   26012.92926121  .00014085  00000+0  52060-3 0  9996
2 63286  42.9991 196.8547 0001351 273.3928  86.6769 15.27566289 47661
STARLINK-33680          
1 63287U 25053Y   26012.89199560  .00019203  00000+0  70577-3 0  9992
2 63287  43.0023 196.5733 0002076 272.7368  87.3246 15.27568184 47710
STARLINK-11568 [DTC]    
1 63307U 25057A   26012.05214889  .00044457  00000+0  34852-3 0  9994
2 63307  42.9994 245.5992 0003432 239.5496 120.5033 15.70806297 48274
STARLINK-11575 [DTC]    
1 63308U 25057B   26012.90529245  .00142622  00000+0  10926-2 0  9992
2 63308  43.0031 240.8281 0001943 263.6539  96.4107 15.70914609 48404
STARLINK-11585 [DTC]    
1 63309U 25057C   26012.63503399  .00213005  00000+0  16148-2 0  9991
2 63309  42.9978 242.2340 0001525 275.4603  84.6091 15.70936429 48397
STARLINK-11587 [DTC]    
1 63310U 25057D   26012.92652673  .00160995  00000+0  12292-2 0  9990
2 63310  42.9989 240.9993 0001924 242.7749 117.2922 15.70933071 48409
STARLINK-11589 [DTC]    
1 63311U 25057E   26012.93184037  .00126884  00000+0  97457-3 0  9992
2 63311  43.0005 241.0425 0001705 284.1616  75.9062 15.70906703 48400
